#dP2021  3 16 18  0  0.00000000      96 __u+U ITR00 EXT  IAC
## 2149 237600.00000000   900.00000000 59289 0.7500000000000
+  116   C06C07C08C09C10C11C12C13C14C16C19C20C21C22C23C24C25
+        C26C27C28C29C30C32C33C34C35C36C37C38C39C40C41C42C43
+        C44C45C46E01E02E03E04E05E07E08E09E11E12E13E14E15E18
+        E19E21E24E25E26E27E30E31E33G01G02G03G04G05G06G07G08
+        G09G10G11G12G13G14G15G16G17G18G19G20G21G22G23G24G25
+        G26G27G28G29G30G31G32J01J02J03R01R02R03R04R05R07R08
+        R09R11R12R13R14R15R16R17R18R19R20R21R22R24  0  0  0
++        12 10 10  9  8 10  9 10  8 12  8 10  8 10  8 10  9
++         9  7  9  8  8  9  9  9  8 10  8 11 10 11 10  9 10
++        10  8  9  8  7  7  8  8  8  7  9  8  9  8  7  7  9
++         9  8  9  9  8  8  8  8  9  7  8  8  8  7  7  8  7
++         9  8  9  8  9  9  8  9  8  9  9  8  8  8  8  8  8
++         7  8  8  9  8  9  7 11 11  7  9  9  9  9  7  8  9
++         9 10  7  9  9  9 10  8  9  8  9  8  7  9  0  0  0
%c M  cc GPS ccc cccc cccc cccc cccc ccccc ccccc ccccc ccccc
%c cc cc ccc ccc cccc cccc cccc cccc ccccc ccccc ccccc ccccc
%f  0.0000000  0.000000000  0.00000000000  0.000000000000000
%f  0.0000000  0.000000000  0.00000000000  0.000000000000000
%i    0    0    0    0      0      0      0      0         0
%i    0    0    0    0      0      0      0      0         0
/* IAC                                ULTRA-RAPID PREDICTION
/* S/V CLOCKS ARE ALIGNED TO GNSS TIME                      
/* G:C1WC2W R:C1PC2P E:C1XC5X C:C2IC6I J:C1CC2S             
/* PCV:IGS14_2134 OL/AL:FES2004  NONE     YN ORB:CoN CLK:CoN
*  2021 03 17  6  0  0.00000000
PC06 -12673.131835  37792.510400 -12495.126497    184.778554
PC07 -12332.293685  23665.955844  32901.718002    -25.298844
PC08 -26405.425178  26142.549769 -20159.821724   -899.928860
PC09  -4245.885763  41663.958026   2149.230599    662.930783
PC10   2950.610181  29705.012923  30121.729701    -70.551174
PC11 -14058.167991  19933.024726  13650.948437   -864.288923
PC12 -15810.619801   1309.731264  22995.157711    870.837827
PC13 -11954.538715  27518.975523 -29613.114433    183.396993
PC14 -13195.190846   9367.675726 -22700.498201    230.602638
PC16  -9818.692012  39796.508463  -9234.369137   -738.289193
PC19   4386.943898 -16584.969343  22036.643593    764.475748
PC20  18950.788741  -1921.119299  20424.240749   -931.372148
PC21 -22831.376989 -14649.681934  -6478.795005   -889.199815
PC22 -13118.310944 -22082.303477  10883.547882   -920.140542
PC23   5124.792766  15405.530720  22694.730352   -878.195946
PC24 -26720.559573   8097.192736   -246.418857   -785.153777
PC25 -14421.625906  17292.430091  16490.484865   -947.280934
PC26 -22911.781125  -3919.896686 -15477.631831    934.292068
PC27  13574.733465   9696.421549 -22383.864269    499.918600
PC28   2637.793375  25025.099301 -12061.251806    -97.519604
PC29   8812.157604 -25952.749807  -5276.445027    366.040116
PC30  16151.123344 -11329.768366 -19749.754664    452.961743
PC32  22972.633317  14457.378789   6520.609575   -914.412456
PC33  -4342.383528  16594.937893 -22003.673111   -946.627491
PC34 -16110.716218  11966.733166  19371.338227   -717.238922
PC35  -3318.400656 -25101.844431  11772.607794   -371.052952
PC36  15132.587117 -16876.188964 -16256.723322   -740.968903
PC37  22230.252785   5067.688295  16087.925484   -877.761761
PC38 -22498.699447  28188.287323 -21909.046956    136.298320
PC39  -7055.590161  40455.153530  -9249.920485     29.427280
PC40    127.655041  25921.248217  33306.954853    141.711137
PC41  13012.158290  22053.745623 -11033.341708   -932.894576
PC42 -19341.636378   1309.735183 -20020.770241   -939.599229
PC43  -9233.459406  25693.179686   5698.247324   -643.101322
PC44 -13909.515620  -9548.749152  22228.593643     89.866395
PC45  -5240.285398 -15243.671171 -22781.677607    388.816715
PC46  26477.511967  -8726.238459   -643.291364    359.311709
PE01 -29250.436507  -4542.575123    524.447910  -1067.212238
PE02  29245.299598   4454.134941   -651.588544    205.572075
PE03  19034.373642   7686.938976  21330.467927   -409.765704
PE04 -12379.139307  13625.814711 -23171.649109   -730.577098
PE05  14607.779349  24793.942113   6937.131942   -296.406525
PE07  -1697.750233 -27274.912053  11371.415757   -513.763201
PE08  12008.532074 -13935.481018  23190.719747   6031.978981
PE09   2040.517718  27301.935324 -11264.063841   5732.160635
PE11  -9302.594034  24979.444443 -12849.173221   6198.410488
PE12 -21184.726728  19635.712040   6413.460043   5306.348821
PE13   9603.345570 -25058.036031  12514.297376    413.659534
PE14  20773.644082   4585.088889 -24608.025390  -1364.543932
PE15  21091.883576 -19770.859494  -6373.482019    824.255666
PE18 -14885.453882   1722.906049  18177.090758  -1492.190426
PE19 -18996.831519 -10144.882396 -20302.397036    228.816204
PE21 -19813.414914 -14535.882440 -16513.624272   -654.054568
PE24  -2396.414239  16409.098228  24501.658069   -796.987572
PE25  19641.668329  14597.860397  16646.203927   -528.654713
PE26  -8193.017928 -15145.464650  24085.274965   2032.834667
PE27   1449.045958 -16508.375141 -24528.392696      8.759530
PE30  22408.096102  -8216.969805 -17509.009802   3100.599924
PE31 -21742.549013   8764.848393  18078.704152   -479.247123
PE33 -20147.213374   2828.048874  21504.681537   -466.608711
PG01 -10430.403190  20068.867763 -13882.388446    739.375721
PG02  21593.763697 -13336.259522  -7227.823777   -586.883777
PG03   -617.454438  15645.287074 -21546.468566   -110.294738
PG04  -2360.743203  25258.727461  -7770.355171   -186.646062
PG05  18655.594306  -6737.385842  17604.113969    -36.445237
PG06  19926.235638  -1099.928403 -17493.203517      1.279881
PG07   4077.654782  15943.382273  21094.226707     92.478017
PG08  -6680.469263  20870.927161  14786.240110    -14.032590
PG09   6604.565729  25531.359248   2982.817988   -331.708727
PG10 -23600.421515 -11903.348114   3916.120748    -82.648041
PG11  -8404.782839  25284.316094  -2960.876984      3.340547
PG12   5454.775358 -14044.265718 -22130.890168    -15.042231
PG13  13012.677327 -12396.098791  19379.689815    108.759532
PG14  22412.574825  13458.594615   4731.569275     99.825527
PG15   4666.572943 -21802.592859  13803.450263   -162.597619
PG16 -20901.166324   2033.047500  16293.546990   -295.234212
PG17  12930.389384  15167.481113 -17126.618768    410.990182
PG18  -6735.581081 -13714.576821  21715.266418    350.656797
PG19  14696.825717   6473.430589 -21456.402333    -25.314840
PG20 -14838.453938 -15370.626900  15896.290688    524.121531
PG21 -16116.545170  19982.730450  -5065.596024    103.754866
PG22 -10396.843684  12885.486387 -20537.486527   -658.759772
PG23 -16451.539481 -15859.119313  13552.564168    117.301083
PG24  13578.103724 -21066.293151  -8409.525532      0.945599
PG25  -9833.633999 -17253.143663 -18030.898536    100.385743
PG26 -25461.423040  -2893.455514   7440.603136     59.173744
PG27 -12923.582176   9271.288789  21036.627632    -95.479607
PG28  22717.192789  13379.496794   2740.153314    600.967732
PG29  -4610.953711 -25871.349598   3659.470083   -313.273739
PG30  15575.967169   6995.190236  20444.574874   -399.573082
PG31 -21744.306490   3028.071444 -15352.416314   -106.065985
PG32 -14839.939261 -12893.675126 -17835.955364     21.295610
PJ01 -20886.372690  20425.606146 -25868.055715   -355.753149
PJ02 -30501.804363  22545.444815  23300.797731      3.512095
PJ03 -29432.933543  26440.564904  19628.995368     -1.861247
PR01   9610.590206  20862.059319 -11105.877909     76.497854
PR02  17505.882195  15715.554359   9830.825638    471.064410
PR03  13551.254482    880.555210  21626.742263     32.530523
PR04   1866.928436 -14076.229609  21221.686128     78.240003
PR05 -10738.048467 -21355.228368   8951.651594     68.290956
PR07 -13257.524751   -408.798621 -21757.209365    -42.558562
PR08  -1877.311897  14159.914388 -21071.168541    -57.981872
PR09 -21339.149689  -3753.110350 -13394.187287    -16.729910
PR11 -14132.313123  10724.235679  18330.752126      2.209252
PR12   5199.366639  10276.031118  22778.013999    213.209777
PR13  21027.975477   3791.021157  13908.336114    -52.097602
PR14  24756.571684  -4967.574015  -3653.053276     62.092303
PR15  13911.055502 -10664.803879 -18515.161327    104.870758
PR16  -6639.473728 -10071.678245 -22518.675734    -12.617370
PR17  13784.474910 -10856.685394 -18490.154276    408.641454
PR18  11668.109429 -22362.143597  -3993.827471     70.052577
PR19   4388.272287 -22097.835936  11968.908661   -136.034951
PR20  -7639.297814  -7830.684902  23057.411018    -45.413347
PR21 -13876.395775  11948.019302  17769.987810   -194.968758
PR22 -11361.889749  22591.477063   2889.865810   -103.014368
PR24   8553.147683   7161.699976 -22920.666668     35.296411
EOF
